{
    "week": 296,
    "satellites": [
        {
            "Name": "COSMOS 2545 (760)",
            "Line1": "1 45358U 20018A   24343.62079364 -.00000027  00000+0  00000+0 0  9997",
            "Line2": "2 45358  64.6681 331.8790 0011978 251.3579 108.5295  2.13102384 36820",
            "SatelliteNumber": "45358",
            "Classification": "U",
            "LaunchYear": "20",
            "LaunchNumber": "018",
            "PieceOfLaunch": "A",
            "EpochYear": "24",
            "EpochDay": 343.62079364,
            "FirstDerivativeMeanMotion": -2.7e-07,
            "SecondDerivativeMeanMotion": "00000+0",
            "BSTAR": "00000+0",
            "SetNumber": "999",
            "Inclination": 64.6681,
            "RAAN": 331.879,
            "Eccentricity": 0.0011978,
            "ArgumentOfPerigee": 251.3579,
            "MeanAnomaly": 108.5295,
            "MeanMotion": 2.13102384,
            "RevolutionNumber": "3682"
        },
        {
            "Name": "COSMOS 2547 (705K)",
            "Line1": "1 46805U 20075A   24340.99174374  .00000065  00000+0  00000+0 0  9993",
            "Line2": "2 46805  64.5956 211.1204 0006058 233.7758 126.2582  2.13102795 32017",
            "SatelliteNumber": "46805",
            "Classification": "U",
            "LaunchYear": "20",
            "LaunchNumber": "075",
            "PieceOfLaunch": "A",
            "EpochYear": "24",
            "EpochDay": 340.99174374,
            "FirstDerivativeMeanMotion": 6.5e-07,
            "SecondDerivativeMeanMotion": "00000+0",
            "BSTAR": "00000+0",
            "SetNumber": "999",
            "Inclination": 64.5956,
            "RAAN": 211.1204,
            "Eccentricity": 0.0006058,
            "ArgumentOfPerigee": 233.7758,
            "MeanAnomaly": 126.2582,
            "MeanMotion": 2.13102795,
            "RevolutionNumber": "3201"
        },
        {
            "Name": "COSMOS 2557 (706K)",
            "Line1": "1 52984U 22075A   24343.50406362 -.00000027  00000+0  00000+0 0  9994",
            "Line2": "2 52984  64.5995 333.9970 0014122 278.4316  81.4280  2.13101829 18866",
            "SatelliteNumber": "52984",
            "Classification": "U",
            "LaunchYear": "22",
            "LaunchNumber": "075",
            "PieceOfLaunch": "A",
            "EpochYear": "24",
            "EpochDay": 343.50406362,
            "FirstDerivativeMeanMotion": -2.7e-07,
            "SecondDerivativeMeanMotion": "00000+0",
            "BSTAR": "00000+0",
            "SetNumber": "999",
            "Inclination": 64.5995,
            "RAAN": 333.997,
            "Eccentricity": 0.0014122,
            "ArgumentOfPerigee": 278.4316,
            "MeanAnomaly": 81.428,
            "MeanMotion": 2.13101829,
            "RevolutionNumber": "1886"
        },
        {
            "Name": "COSMOS 2559 (707K)",
            "Line1": "1 54031U 22130A   24343.44751690 -.00000027  00000+0  00000+0 0  9991",
            "Line2": "2 54031  64.5716 334.1106 0008045 234.7532 125.1914  2.13101202 16849",
            "SatelliteNumber": "54031",
            "Classification": "U",
            "LaunchYear": "22",
            "LaunchNumber": "130",
            "PieceOfLaunch": "A",
            "EpochYear": "24",
            "EpochDay": 343.4475169,
            "FirstDerivativeMeanMotion": -2.7e-07,
            "SecondDerivativeMeanMotion": "00000+0",
            "BSTAR": "00000+0",
            "SetNumber": "999",
            "Inclination": 64.5716,
            "RAAN": 334.1106,
            "Eccentricity": 0.0008045,
            "ArgumentOfPerigee": 234.7532,
            "MeanAnomaly": 125.1914,
            "MeanMotion": 2.13101202,
            "RevolutionNumber": "1684"
        },
        {
            "Name": "COSMOS 2564 (761)",
            "Line1": "1 54377U 22161A   24343.16840573  .00000065  00000+0  00000+0 0  9997",
            "Line2": "2 54377  64.7371 211.1837 0008125 208.5511 151.4875  2.13102013 15782",
            "SatelliteNumber": "54377",
            "Classification": "U",
            "LaunchYear": "22",
            "LaunchNumber": "161",
            "PieceOfLaunch": "A",
            "EpochYear": "24",
            "EpochDay": 343.16840573,
            "FirstDerivativeMeanMotion": 6.5e-07,
            "SecondDerivativeMeanMotion": "00000+0",
            "BSTAR": "00000+0",
            "SetNumber": "999",
            "Inclination": 64.7371,
            "RAAN": 211.1837,
            "Eccentricity": 0.0008125,
            "ArgumentOfPerigee": 208.5511,
            "MeanAnomaly": 151.4875,
            "MeanMotion": 2.13102013,
            "RevolutionNumber": "1578"
        },
        {
            "Name": "COSMOS 2569 (703K)",
            "Line1": "1 57517U 23114A   24343.18428901  .00000020  00000+0  00000+0 0  9995",
            "Line2": "2 57517  64.9990  91.4173 0009918 289.1566  70.7404  2.13104027 10411",
            "SatelliteNumber": "57517",
            "Classification": "U",
            "LaunchYear": "23",
            "LaunchNumber": "114",
            "PieceOfLaunch": "A",
            "EpochYear": "24",
            "EpochDay": 343.18428901,
            "FirstDerivativeMeanMotion": 2e-07,
            "SecondDerivativeMeanMotion": "00000+0",
            "BSTAR": "00000+0",
            "SetNumber": "999",
            "Inclination": 64.999,
            "RAAN": 91.4173,
            "Eccentricity": 0.0009918,
            "ArgumentOfPerigee": 289.1566,
            "MeanAnomaly": 70.7404,
            "MeanMotion": 2.13104027,
            "RevolutionNumber": "1041"
        }
    ]
}